#aV2007 11 28  0  0   .00000000      96 DD+AD WGS84 FIT  NGA
## 1455 259200.00000000   900.00000000 54432  .0000000000000
+   31     1  2  3  4  5  6  7  8  9 10 11 12 13 14 15 16 17
+         18 19 20 21 22 23 24 25 26 27 28 30 31 32  0  0  0
+          0  0  0  0  0  0  0  0  0  0  0  0  0  0  0  0  0
+          0  0  0  0  0  0  0  0  0  0  0  0  0  0  0  0  0
+          0  0  0  0  0  0  0  0  0  0  0  0  0  0  0  0  0
++         0  0  0  0  0  0  0  0  0  0  0  0  0  0  0  0  0
++         0  0  0  0  0  0  0  0  0  0  0  0  0  0  0  0  0
++         0  0  0  0  0  0  0  0  0  0  0  0  0  0  0  0  0
++         0  0  0  0  0  0  0  0  0  0  0  0  0  0  0  0  0
++         0  0  0  0  0  0  0  0  0  0  0  0  0  0  0  0  0
%c cc cc ccc ccc cccc cccc cccc cccc ccccc ccccc ccccc ccccc
%c cc cc ccc ccc cccc cccc cccc cccc ccccc ccccc ccccc ccccc
%f  0.0000000  0.000000000  0.00000000000  0.000000000000000
%f  0.0000000  0.000000000  0.00000000000  0.000000000000000
%i    0    0    0    0      0      0      0      0         0
%i    0    0    0    0      0      0      0      0         0
/*      NGA, ST. LOUIS,MO.                                  
/*   EPHEMERIS COMPUTED FROM  3 DAYS OF DATA                
/* CCCCCCCCCCCCCCCCCCCCCCCCCCCCCCCCCCCCCCCCCCCCCCCCCCCCCCCCC
/* CCCCCCCCCCCCCCCCCCCCCCCCCCCCCCCCCCCCCCCCCCCCCCCCCCCCCCCCC
*  2007 11 28  3  0   .00000000                                                 
P  1 -15944.656523  -8527.756391 -19262.467322    169.208878                    
V  1  -6627.797930 -23950.456867  15833.337589       .021685                    
P  2  20228.164631  -7005.112976 -15705.867907    154.323379                    
V  2 -10531.978985  16912.865779 -21676.102595       .027832                    
P  3 -16034.171172   2897.450367  20772.998074    150.464740                    
V  3 -11598.079035 -24424.138734  -5136.428373       .054453                    
P  4  15907.262915   4579.020493 -20916.764922    -29.844820                    
V  4 -16444.334998  20614.448661  -7660.464684      -.047401                    
P  5   3658.166217 -15465.687305 -21534.117693    565.875494                    
V  5  26716.669302   2339.869508   3034.378918       .222254                    
P  6  -6273.637953 -25175.710391  -5435.797329    205.983306                    
V  6   6125.505298   5184.667763 -30112.944803      -.104454                    
P  7  -9182.773629 -24743.384223  -2503.678280    -23.039423                    
V  7   4826.805967   1755.429482 -30968.476905       .003632                    
P  8   9019.509773  11833.522158  21868.088534   -131.315448                    
V  8 -19109.959858  20452.003718  -3622.889343      -.014725                    
P  9  14077.201415 -22249.191370  -3242.144102     98.630883                    
V  9   4149.864081  -1100.037855  31708.674713       .016723                    
P 10  24887.577720  -1908.057547   9424.830902   -156.706692                    
V 10  11416.314281   4362.271331 -28575.146844      -.119872                    
P 11 -10373.100803  24068.178693  -3230.560145     26.243981                    
V 11  -6453.946175   1036.011282  29991.433974       .002263                    
P 12  10357.007195 -12894.396899 -20679.237341   -349.704594                    
V 12  25976.916592   5170.029981   9811.312792      -.012128                    
P 13   5731.908882  25650.089000  -4031.225271    224.152916                    
V 13  -3140.228905  -4194.582144 -31942.001365       .026099                    
P 14 -14718.149474 -18739.377962 -11733.654035   -317.002375                    
V 14  -3436.038586 -14666.864713  27403.450990       .026367                    
P 15   9734.860701 -14244.716204  20227.009757    -75.973553                    
V 15  10281.505126  23498.091253  11591.195354       .045809                    
P 16 -26184.375995  -1292.728132   4868.635829    126.756878                    
V 16  -5522.318101  -3529.068371 -30925.445125       .015960                    
P 17  14976.799509  19310.474026 -10563.918536     47.930528                    
V 17   2356.686042  13402.513770  27651.306923      -.009959                    
P 18  -9775.571814 -15951.611511  19149.624051   -222.836959                    
V 18  23651.959997   3527.063489  14799.564088       .023771                    
P 19 -10679.976108  13686.497358  20142.765190      9.267785                    
V 19  -8492.855155 -24015.257898  12016.968396       .019522                    
P 20  -7017.473583  14362.693717 -21309.560293    125.474852                    
V 20 -26484.361559  -4524.446229   5741.824754      -.006657                    
P 21   -927.494008 -19257.378685  18164.308101     76.008033                    
V 21  16746.698754 -15992.145572 -16823.961155      -.004972                    
P 22 -21599.646923 -11926.680297  10046.974136    204.013069                    
V 22  12838.601642   -138.970280  27846.978760       .008951                    
P 23  -2740.312119  21734.053113 -14915.550370    313.172128                    
V 23  -8475.125931 -17005.292490 -23548.175966       .033556                    
P 24  10658.519463 -22380.610531  10112.971154     49.459670                    
V 24  10174.948607  -7630.668331 -27838.546070       .030166                    
P 25  -3396.893689  22595.298026  14035.742695    484.870743                    
V 25 -11151.817644  13165.775507 -24383.729397       .045838                    
P 26  11220.792529 -10201.457506  21260.554297    108.908851                    
V 26   9554.802522  26440.330389   8016.287328       .118773                    
P 27   2264.400624  19110.142208  18881.042700    150.624870                    
V 27 -14341.480483  17614.532989 -16895.718089       .024404                    
P 28  19684.648714  12927.168100  12970.581308    -11.090446                    
V 28 -15845.614802  -1080.818946  25487.462962      -.007165                    
P 30  -3228.284314 -15896.286944 -21378.599087     54.078153                    
V 30  26274.788596   2721.149345  -5987.227183       .014220                    
P 31 -16795.120252  -1626.352460 -20326.319471       .694555                    
V 31  15805.361589 -20962.396111 -11193.225591      -.014767                    
P 32 -25481.245770  -7153.350787   1097.428820    153.443161                    
V 32   1441.032657  -2314.539886  32060.424024       .129072                    
EOF
